YAOGAN-43 01G           
1 60464U 24148G   26068.44348481  .00010133  00000+0  35873-3 0  9993
2 60464  35.0006  62.0013 0007382 306.3543  53.6492 15.28332833 87004
STARLINK-35798          
1 66292U 25247AD  26068.59673868  .00024982  00000+0  85285-3 0  9994
2 66292  53.1600 191.5694 0000811  69.5956 290.5132 15.30196420 21014
